ONEWEB-0144             
1 47290U 20100AJ  24121.51984134  .00000413  00000+0  11116-2 0  9999
2 47290  87.8940 145.4693 0002435  93.1640 266.9768 13.12442727162566
ONEWEB-0145             
1 47291U 20100AK  24121.11005464 -.00000117  00000+0 -36141-3 0  9995
2 47291  87.8942 145.5746 0002209  93.4052 266.7329 13.12443787162702
ONEWEB-0146             
1 47292U 20100AL  24121.48646578 -.00000349  00000+0 -10063-2 0  9994
2 47292  87.8940 145.4826 0001578  93.5222 266.6087 13.12444364162664
ONEWEB-0147             
1 47293U 20100AM  24121.52936138  .00000220  00000+0  57598-3 0  9995
2 47293  87.8937 145.4700 0002243 100.9398 259.1983 13.12441497162564
ONEWEB-0115             
1 48042U 21025A   24120.94511217 -.00000097  00000+0 -30185-3 0  9994
2 48042  87.8884 115.1551 0001859  90.1711 269.9631 13.13471084151436
ONEWEB-0152             
1 48043U 21025B   24121.03398745  .00000176  00000+0  44804-3 0  9994
2 48043  87.8889 115.1329 0001908  89.8484 270.2864 13.13470236151411
ONEWEB-0153             
1 48044U 21025C   24120.93557505 -.00000245  00000+0 -70666-3 0  9998
2 48044  87.8894 115.1394 0002122  88.9969 271.1403 13.13469706151382
ONEWEB-0154             
1 48045U 21025D   24121.54182466 -.00000301  00000+0 -85839-3 0  9998
2 48045  87.8889 115.0309 0002018  90.0790 270.0571 13.13469636151434
